FLOCK 4BE-12            
1 60560U 24149CW  26094.68427627  .00179023  00000+0  27192-2 0  9994
2 60560  97.3699 179.2514 0006748 201.7435 158.3533 15.53921458 91098
FLOCK 4BE-3             
1 60561U 24149CX  26094.67737457  .00023782  00000+0  61092-3 0  9997
2 60561  97.3713 178.0113 0005050 176.4650 183.6632 15.39287087 91021
FLOCK 4BE-19            
1 60563U 24149CZ  26094.77604877  .00028752  00000+0  68285-3 0  9992
2 60563  97.3751 179.3195 0004655 178.9260 181.1998 15.41638416 91109
FLOCK 4G-8              
1 62613U 25009E   26094.78842660  .00015897  00000+0  57808-3 0  9996
2 62613  97.4019 177.1782 0004048 195.4406 164.6711 15.28331951 67702
FLOCK 4G-13             
1 62621U 25009N   26094.46878757  .00094446  00000+0  26647-2 0  9999
2 62621  97.3991 176.9224 0005394 206.5504 153.5465 15.36013509 67657
FLOCK 4G-9              
1 62622U 25009P   26094.76804145  .00014858  00000+0  56608-3 0  9993
2 62622  97.3973 176.3273 0004109 206.1343 153.9689 15.26806186 67658
FLOCK 4G-7              
1 62624U 25009R   26094.80753529  .00016373  00000+0  60455-3 0  9998
2 62624  97.3956 176.6233 0002596 186.5901 173.5304 15.27825524 67693
FLOCK 4G-12             
1 62625U 25009S   26094.20517933  .00017609  00000+0  65301-3 0  9998
2 62625  97.4032 176.4897 0004087 192.6675 167.4462 15.27662517 67606
FLOCK 4G-11             
1 62629U 25009W   26094.72469398  .00015224  00000+0  56136-3 0  9997
2 62629  97.3938 176.6707 0002599 188.7745 171.3450 15.27886269 67698
PELICAN-2               
1 62631U 25009Y   26094.77740094  .00093285  00000+0  22901-2 0  9995
2 62631  97.3972 185.3881 0002772 139.6405 220.5047 15.40326005 68254
FLOCK 4G-26             
1 62633U 25009AA  26094.81041300  .00015307  00000+0  56341-3 0  9991
2 62633  97.4029 177.2167 0003619 179.4528 180.6716 15.27941012 67700
FLOCK 4G-28             
1 62634U 25009AB  26094.68173846  .00013674  00000+0  42230-3 0  9995
2 62634  97.4030 179.0216 0002063 166.4390 193.6908 15.33659975 67813
FLOCK 4G-20             
1 62636U 25009AD  26094.79415642  .00099909  00000+0  23756-2 0  9998
2 62636  97.3908 177.7548 0003582 215.5010 144.5999 15.41266041 67770
FLOCK 4G-24             
1 62637U 25009AE  26094.78711689  .00016321  00000+0  59054-3 0  9996
2 62637  97.4034 177.4177 0003440 167.1332 192.9996 15.28491988 67712
FLOCK 4G-3              
1 62639U 25009AG  26094.80870558  .00015886  00000+0  58608-3 0  9991
2 62639  97.4034 177.2322 0003175 169.9742 190.1561 15.27858938 67690
FLOCK 4G-27             
1 62641U 25009AJ  26094.76055048  .00015530  00000+0  57244-3 0  9999
2 62641  97.3950 176.6590 0002405 170.3636 189.7650 15.27894149 67688
FLOCK 4G-29             
1 62642U 25009AK  26094.75295520  .00014378  00000+0  52823-3 0  9997
2 62642  97.4036 177.1312 0003290 167.4524 192.6798 15.28019947 67681
