[{"OBJECT_NAME":"FLOCK 4BE-12","OBJECT_ID":"2024-149CW","EPOCH":"2026-04-04T16:25:21.469728","MEAN_MOTION":15.53921458,"ECCENTRICITY":0.0006748,"INCLINATION":97.3699,"RA_OF_ASC_NODE":179.2514,"ARG_OF_PERICENTER":201.7435,"MEAN_ANOMALY":158.3533,"EPHEMERIS_TYPE":0,"CLASSIFICATION_TYPE":"U","NORAD_CAT_ID":60560,"ELEMENT_SET_NO":999,"REV_AT_EPOCH":9109,"BSTAR":0.0027192,"MEAN_MOTION_DOT":0.00179023,"MEAN_MOTION_DDOT":0},{"OBJECT_NAME":"FLOCK 4BE-3","OBJECT_ID":"2024-149CX","EPOCH":"2026-04-04T16:15:25.162848","MEAN_MOTION":15.39287087,"ECCENTRICITY":0.000505,"INCLINATION":97.3713,"RA_OF_ASC_NODE":178.0113,"ARG_OF_PERICENTER":176.465,"MEAN_ANOMALY":183.6632,"EPHEMERIS_TYPE":0,"CLASSIFICATION_TYPE":"U","NORAD_CAT_ID":60561,"ELEMENT_SET_NO":999,"REV_AT_EPOCH":9102,"BSTAR":0.00061092,"MEAN_MOTION_DOT":0.00023782,"MEAN_MOTION_DDOT":0},{"OBJECT_NAME":"FLOCK 4BE-19","OBJECT_ID":"2024-149CZ","EPOCH":"2026-04-04T18:37:30.613728","MEAN_MOTION":15.41638416,"ECCENTRICITY":0.0004655,"INCLINATION":97.3751,"RA_OF_ASC_NODE":179.3195,"ARG_OF_PERICENTER":178.926,"MEAN_ANOMALY":181.1998,"EPHEMERIS_TYPE":0,"CLASSIFICATION_TYPE":"U","NORAD_CAT_ID":60563,"ELEMENT_SET_NO":999,"REV_AT_EPOCH":9110,"BSTAR":0.00068285,"MEAN_MOTION_DOT":0.00028752,"MEAN_MOTION_DDOT":0},{"OBJECT_NAME":"FLOCK 4G-8","OBJECT_ID":"2025-009E","EPOCH":"2026-04-04T18:55:20.058240","MEAN_MOTION":15.28331951,"ECCENTRICITY":0.0004048,"INCLINATION":97.4019,"RA_OF_ASC_NODE":177.1782,"ARG_OF_PERICENTER":195.4406,"MEAN_ANOMALY":164.6711,"EPHEMERIS_TYPE":0,"CLASSIFICATION_TYPE":"U","NORAD_CAT_ID":62613,"ELEMENT_SET_NO":999,"REV_AT_EPOCH":6770,"BSTAR":0.00057808,"MEAN_MOTION_DOT":0.00015897,"MEAN_MOTION_DDOT":0},{"OBJECT_NAME":"FLOCK 4G-13","OBJECT_ID":"2025-009N","EPOCH":"2026-04-04T11:15:03.246048","MEAN_MOTION":15.36013509,"ECCENTRICITY":0.00053943,"INCLINATION":97.3991,"RA_OF_ASC_NODE":176.9224,"ARG_OF_PERICENTER":206.5504,"MEAN_ANOMALY":153.5465,"EPHEMERIS_TYPE":0,"CLASSIFICATION_TYPE":"U","NORAD_CAT_ID":62621,"ELEMENT_SET_NO":999,"REV_AT_EPOCH":6765,"BSTAR":0.0026647089,"MEAN_MOTION_DOT":0.00094446,"MEAN_MOTION_DDOT":0},{"OBJECT_NAME":"FLOCK 4G-9","OBJECT_ID":"2025-009P","EPOCH":"2026-04-04T18:25:58.781280","MEAN_MOTION":15.26806186,"ECCENTRICITY":0.0004109,"INCLINATION":97.3973,"RA_OF_ASC_NODE":176.3273,"ARG_OF_PERICENTER":206.1343,"MEAN_ANOMALY":153.9689,"EPHEMERIS_TYPE":0,"CLASSIFICATION_TYPE":"U","NORAD_CAT_ID":62622,"ELEMENT_SET_NO":999,"REV_AT_EPOCH":6765,"BSTAR":0.00056608,"MEAN_MOTION_DOT":0.00014858,"MEAN_MOTION_DDOT":0},{"OBJECT_NAME":"FLOCK 4G-7","OBJECT_ID":"2025-009R","EPOCH":"2026-04-04T19:22:51.049056","MEAN_MOTION":15.27825524,"ECCENTRICITY":0.0002596,"INCLINATION":97.3956,"RA_OF_ASC_NODE":176.6233,"ARG_OF_PERICENTER":186.5901,"MEAN_ANOMALY":173.5304,"EPHEMERIS_TYPE":0,"CLASSIFICATION_TYPE":"U","NORAD_CAT_ID":62624,"ELEMENT_SET_NO":999,"REV_AT_EPOCH":6769,"BSTAR":0.00060455,"MEAN_MOTION_DOT":0.00016373,"MEAN_MOTION_DDOT":0},{"OBJECT_NAME":"FLOCK 4G-12","OBJECT_ID":"2025-009S","EPOCH":"2026-04-04T04:55:27.494112","MEAN_MOTION":15.27662517,"ECCENTRICITY":0.00040873,"INCLINATION":97.4032,"RA_OF_ASC_NODE":176.4897,"ARG_OF_PERICENTER":192.6675,"MEAN_ANOMALY":167.4462,"EPHEMERIS_TYPE":0,"CLASSIFICATION_TYPE":"U","NORAD_CAT_ID":62625,"ELEMENT_SET_NO":999,"REV_AT_EPOCH":6760,"BSTAR":0.00065300847,"MEAN_MOTION_DOT":0.00017609,"MEAN_MOTION_DDOT":0},{"OBJECT_NAME":"FLOCK 4G-11","OBJECT_ID":"2025-009W","EPOCH":"2026-04-04T17:23:33.559872","MEAN_MOTION":15.27886269,"ECCENTRICITY":0.0002599,"INCLINATION":97.3938,"RA_OF_ASC_NODE":176.6707,"ARG_OF_PERICENTER":188.7745,"MEAN_ANOMALY":171.345,"EPHEMERIS_TYPE":0,"CLASSIFICATION_TYPE":"U","NORAD_CAT_ID":62629,"ELEMENT_SET_NO":999,"REV_AT_EPOCH":6769,"BSTAR":0.00056136,"MEAN_MOTION_DOT":0.00015224,"MEAN_MOTION_DDOT":0},{"OBJECT_NAME":"PELICAN-2","OBJECT_ID":"2025-009Y","EPOCH":"2026-04-04T18:39:27.441216","MEAN_MOTION":15.40326005,"ECCENTRICITY":0.0002772,"INCLINATION":97.3972,"RA_OF_ASC_NODE":185.3881,"ARG_OF_PERICENTER":139.6405,"MEAN_ANOMALY":220.5047,"EPHEMERIS_TYPE":0,"CLASSIFICATION_TYPE":"U","NORAD_CAT_ID":62631,"ELEMENT_SET_NO":999,"REV_AT_EPOCH":6825,"BSTAR":0.0022901,"MEAN_MOTION_DOT":0.00093285,"MEAN_MOTION_DDOT":0},{"OBJECT_NAME":"FLOCK 4G-26","OBJECT_ID":"2025-009AA","EPOCH":"2026-04-04T19:26:59.683200","MEAN_MOTION":15.27941012,"ECCENTRICITY":0.0003619,"INCLINATION":97.4029,"RA_OF_ASC_NODE":177.2167,"ARG_OF_PERICENTER":179.4528,"MEAN_ANOMALY":180.6716,"EPHEMERIS_TYPE":0,"CLASSIFICATION_TYPE":"U","NORAD_CAT_ID":62633,"ELEMENT_SET_NO":999,"REV_AT_EPOCH":6770,"BSTAR":0.00056341,"MEAN_MOTION_DOT":0.00015307,"MEAN_MOTION_DDOT":0},{"OBJECT_NAME":"FLOCK 4G-28","OBJECT_ID":"2025-009AB","EPOCH":"2026-04-04T16:21:42.202944","MEAN_MOTION":15.33659975,"ECCENTRICITY":0.0002063,"INCLINATION":97.403,"RA_OF_ASC_NODE":179.0216,"ARG_OF_PERICENTER":166.439,"MEAN_ANOMALY":193.6908,"EPHEMERIS_TYPE":0,"CLASSIFICATION_TYPE":"U","NORAD_CAT_ID":62634,"ELEMENT_SET_NO":999,"REV_AT_EPOCH":6781,"BSTAR":0.0004223,"MEAN_MOTION_DOT":0.00013674,"MEAN_MOTION_DDOT":0},{"OBJECT_NAME":"FLOCK 4G-20","OBJECT_ID":"2025-009AD","EPOCH":"2026-04-04T19:03:35.114688","MEAN_MOTION":15.41266041,"ECCENTRICITY":0.0003582,"INCLINATION":97.3908,"RA_OF_ASC_NODE":177.7548,"ARG_OF_PERICENTER":215.501,"MEAN_ANOMALY":144.5999,"EPHEMERIS_TYPE":0,"CLASSIFICATION_TYPE":"U","NORAD_CAT_ID":62636,"ELEMENT_SET_NO":999,"REV_AT_EPOCH":6777,"BSTAR":0.0023756,"MEAN_MOTION_DOT":0.00099909,"MEAN_MOTION_DDOT":0},{"OBJECT_NAME":"FLOCK 4G-24","OBJECT_ID":"2025-009AE","EPOCH":"2026-04-04T18:53:26.899296","MEAN_MOTION":15.28491988,"ECCENTRICITY":0.000344,"INCLINATION":97.4034,"RA_OF_ASC_NODE":177.4177,"ARG_OF_PERICENTER":167.1332,"MEAN_ANOMALY":192.9996,"EPHEMERIS_TYPE":0,"CLASSIFICATION_TYPE":"U","NORAD_CAT_ID":62637,"ELEMENT_SET_NO":999,"REV_AT_EPOCH":6771,"BSTAR":0.00059054,"MEAN_MOTION_DOT":0.00016321,"MEAN_MOTION_DDOT":0},{"OBJECT_NAME":"FLOCK 4G-3","OBJECT_ID":"2025-009AG","EPOCH":"2026-04-04T19:24:32.162112","MEAN_MOTION":15.27858938,"ECCENTRICITY":0.0003175,"INCLINATION":97.4034,"RA_OF_ASC_NODE":177.2322,"ARG_OF_PERICENTER":169.9742,"MEAN_ANOMALY":190.1561,"EPHEMERIS_TYPE":0,"CLASSIFICATION_TYPE":"U","NORAD_CAT_ID":62639,"ELEMENT_SET_NO":999,"REV_AT_EPOCH":6769,"BSTAR":0.00058608,"MEAN_MOTION_DOT":0.00015886,"MEAN_MOTION_DDOT":0},{"OBJECT_NAME":"FLOCK 4G-27","OBJECT_ID":"2025-009AJ","EPOCH":"2026-04-04T18:15:11.561472","MEAN_MOTION":15.27894149,"ECCENTRICITY":0.0002405,"INCLINATION":97.395,"RA_OF_ASC_NODE":176.659,"ARG_OF_PERICENTER":170.3636,"MEAN_ANOMALY":189.765,"EPHEMERIS_TYPE":0,"CLASSIFICATION_TYPE":"U","NORAD_CAT_ID":62641,"ELEMENT_SET_NO":999,"REV_AT_EPOCH":6768,"BSTAR":0.00057244,"MEAN_MOTION_DOT":0.0001553,"MEAN_MOTION_DDOT":0},{"OBJECT_NAME":"FLOCK 4G-29","OBJECT_ID":"2025-009AK","EPOCH":"2026-04-04T18:04:15.329280","MEAN_MOTION":15.28019947,"ECCENTRICITY":0.000329,"INCLINATION":97.4036,"RA_OF_ASC_NODE":177.1312,"ARG_OF_PERICENTER":167.4524,"MEAN_ANOMALY":192.6798,"EPHEMERIS_TYPE":0,"CLASSIFICATION_TYPE":"U","NORAD_CAT_ID":62642,"ELEMENT_SET_NO":999,"REV_AT_EPOCH":6768,"BSTAR":0.00052823,"MEAN_MOTION_DOT":0.00014378,"MEAN_MOTION_DDOT":0}]
